A1234   15.1   0.15 K051U  32.47523  338.75484  210.40651   12.67114  0.0892009  0.24392797   2.5368511  1 MPO 64424   101   6 1990-2004 0.67 M-v 38h MPC        0000 (90000) 2002 TK102          20040415
